MEAN_MOTION;ECCENTRICITY;INCLINATION;RA_OF_ASC_NODE;ARG_OF_PERICENTER;MEAN_ANOMALY;BSTAR;MEAN_MOTION_DOT;MEAN_MOTION_DDOT;TYPE
0.99180004;0.0003648;7.3361;52.1837;333.7738;60.2508;0;4.0E-7;0;Intelsat
0.9918047;0.0003661;7.3377;52.1778;334.5035;52.0742;0;2.1E-7;0;Intelsat
0.99180951;0.0003678;7.3395;52.1716;335.3427;63.033;0;-2.0E-8;0;Intelsat
0.99181396;0.0003694;7.3409;52.1663;335.9921;22.1375;0;-2.3E-7;0;Intelsat
0.99181439;0.0003696;7.3411;52.1658;336.0508;53.7278;0;-2.5E-7;0;Intelsat
0.99181861;0.000371;7.3426;52.1604;336.6211;20.1146;0;-4.7E-7;0;Intelsat
0.99181879;0.0003712;7.3427;52.1601;336.6791;40.3405;0;-4.8E-7;0;Intelsat
0.991823;0.000373;7.3444;52.1541;337.3017;43.6213;0;-7.3E-7;0;Intelsat
0.99182739;0.000375;7.3462;52.1478;337.8826;73.5683;0;-9.9E-7;0;Intelsat
0.99183103;0.0003769;7.3479;52.1418;338.3354;89.7894;0;-1.24E-6;0;Intelsat
0.99183356;0.0003791;7.3493;52.1369;338.8231;37.8691;0;-1.44E-6;0;Intelsat
0.99183627;0.0003821;7.351;52.1313;339.4169;35.8536;0;-1.65E-6;0;Intelsat
0.99183765;0.0003842;7.3518;52.1287;339.723;205.4802;0;-1.75E-6;0;Intelsat
0.99183843;0.0003856;7.3527;52.1257;340.027;33.8399;0;-1.86E-6;0;Intelsat
0.99183939;0.0003889;7.3542;52.1206;340.6196;6.2254;0;-2.03E-6;0;Intelsat
0.99183993;0.0003914;7.3552;52.1175;340.9737;210.7818;0;-2.13E-6;0;Intelsat
0.99184025;0.0003928;7.356;52.1148;341.2919;29.7551;0;-2.2E-6;0;Intelsat
0.99184058;0.0003957;7.3569;52.1119;341.7786;213.2581;0;-2.28E-6;0;Intelsat
0.99184057;0.0003972;7.3577;52.1093;342.1187;27.4785;0;-2.34E-6;0;Intelsat
0.99184039;0.0003998;7.3586;52.1064;342.5207;215.7877;0;-2.4E-6;0;Intelsat
0.99184005;0.0004014;7.3594;52.1037;342.8674;25.3408;0;-2.45E-6;0;Intelsat
0.99183936;0.0004058;7.3611;52.0983;343.7139;23.0669;0;-2.53E-6;0;Intelsat
0.9918385;0.0004078;7.362;52.0953;344.0817;222.7547;0;-2.57E-6;0;Intelsat
0.99183779;0.0004093;7.3628;52.0929;344.3691;21.008;0;-2.59E-6;0;Intelsat
0.99183597;0.0004136;7.3645;52.0875;345.2622;18.6962;0;-2.61E-6;0;Intelsat
0.99183502;0.0004161;7.3654;52.0846;345.8023;210.9629;0;-2.62E-6;0;Intelsat
0.9918336;0.0004182;7.3663;52.0818;346.1843;41.9636;0;-2.61E-6;0;Intelsat
0.99183068;0.0004222;7.3681;52.0765;347.0995;39.6573;0;-2.58E-6;0;Intelsat
0.9918294;0.000424;7.3689;52.0738;347.6186;218.4214;0;-2.55E-6;0;Intelsat
0.99182798;0.0004258;7.3698;52.0712;347.9641;37.3657;0;-2.52E-6;0;Intelsat
0.99182612;0.0004278;7.3707;52.0684;348.6117;233.8793;0;-2.48E-6;0;Intelsat
0.99182484;0.0004298;7.3715;52.066;348.9431;34.9759;0;-2.44E-6;0;Intelsat
0.99182285;0.0004312;7.3724;52.0632;349.4611;224.8385;0;-2.4E-6;0;Intelsat
0.99182116;0.0004328;7.3732;52.0607;349.7791;32.7128;0;-2.35E-6;0;Intelsat
0.99181756;0.0004353;7.3748;52.0554;350.5673;30.5027;0;-2.24E-6;0;Intelsat
0.99181406;0.000438;7.3765;52.0501;351.4619;28.1862;0;-2.12E-6;0;Intelsat
0.99181015;0.0004403;7.3782;52.0447;352.3262;25.8975;0;-1.98E-6;0;Intelsat
0.99180867;0.0004415;7.379;52.042;352.9041;204.6163;0;-1.91E-6;0;Intelsat
0.99180477;0.0004434;7.3806;52.0364;353.7514;202.3541;0;-1.77E-6;0;Intelsat
0.99180292;0.0004443;7.3815;52.0336;354.0613;21.3309;0;-1.68E-6;0;Intelsat
0.99180009;0.000446;7.3831;52.028;354.873;19.0952;0;-1.52E-6;0;Intelsat
0.99179818;0.0004459;7.384;52.0252;355.2111;198.0456;0;-1.44E-6;0;Intelsat
0.99179666;0.0004468;7.3848;52.0224;355.4956;17.0556;0;-1.35E-6;0;Intelsat
0.99179354;0.0004475;7.3864;52.0168;356.068;15.0536;0;-1.17E-6;0;Intelsat
0.9917922;0.0004476;7.3873;52.0141;356.3642;194.0402;0;-1.08E-6;0;Intelsat
0.99178883;0.0004493;7.3898;52.0059;357.2336;11.0185;0;-7.8E-7;0;Intelsat
0.99178707;0.0004504;7.3914;52.0005;357.7397;9.1034;0;-5.9E-7;0;Intelsat
0.99178614;0.0004505;7.3921;51.9982;357.8522;162.6737;0;-5.0E-7;0;Intelsat
0.99178448;0.0004522;7.3939;51.9924;358.3135;193.5434;0;-2.9E-7;0;Intelsat
0.99178326;0.000455;7.3963;51.9846;359.1353;3.3931;0;-2.0E-8;0;Intelsat
0.99178341;0.0004568;7.3973;51.9816;359.3118;208.108;0;7.0E-8;0;Intelsat
0.99178367;0.0004573;7.398;51.9794;359.5089;1.6026;0;1.4E-7;0;Intelsat
0.99178375;0.0004592;7.3992;51.9757;359.7084;261.5139;0;2.5E-7;0;Intelsat
0.99178414;0.0004613;7.4006;51.9712;0.0927;204.4736;0;3.6E-7;0;Intelsat
0.99178523;0.000464;7.4023;51.9661;0.5538;196.7426;0;4.8E-7;0;Intelsat
0.99178689;0.0004675;7.404;51.9606;1.273;215.7318;0;5.7E-7;0;Intelsat
0.99178689;0.0004675;7.404;51.9606;1.273;215.7318;0;5.7E-7;0;Intelsat
0.99178893;0.0004709;7.4056;51.9556;1.9623;198.3189;0;6.4E-7;0;Intelsat
0.99179179;0.000475;7.4075;51.9499;2.711;235.6257;0;6.8E-7;0;Intelsat
0.99179479;0.0004785;7.4091;51.9449;3.2888;226.1056;0;6.8E-7;0;Intelsat
0.9917981;0.0004817;7.4106;51.9404;3.8706;184.3972;0;6.6E-7;0;Intelsat
0.99180208;0.0004852;7.4123;51.9352;4.5886;189.9688;0;6.1E-7;0;Intelsat
0.99180598;0.0004885;7.4141;51.9299;5.3524;214.1123;0;5.1E-7;0;Intelsat
0.99181081;0.0004916;7.4157;51.9249;6.0549;206.0373;0;3.9E-7;0;Intelsat
0.99181081;0.0004916;7.4157;51.9249;6.0549;206.0373;0;3.9E-7;0;Intelsat
0.99181481;0.0004942;7.4173;51.9203;6.5936;181.4662;0;2.5E-7;0;Intelsat
0.99181502;0.0004941;7.4173;51.9201;6.6448;193.9168;0;2.4E-7;0;Intelsat
0.9918193;0.0004967;7.4189;51.9152;7.366;181.4571;0;6.0E-8;0;Intelsat
0.99181947;0.0004967;7.419;51.915;7.3956;196.4288;0;5.0E-8;0;Intelsat
0.99182381;0.0004991;7.4206;51.9102;8.1208;182.8567;0;-1.6E-7;0;Intelsat
0.99182854;0.0005012;7.4223;51.9045;8.9597;216.0302;0;-4.3E-7;0;Intelsat
0.99183221;0.0005025;7.4239;51.8995;9.4979;195.5719;0;-6.9E-7;0;Intelsat
0.99183946;0.0005044;7.4271;51.8887;10.9301;202.4887;0;-1.28E-6;0;Intelsat
0.99184285;0.0005048;7.4288;51.8833;11.5509;195.9356;0;-1.57E-6;0;Intelsat
0.99184547;0.0005051;7.4304;51.878;12.178;190.5607;0;-1.86E-6;0;Intelsat
0.99184699;0.0005052;7.4318;51.8731;12.7001;155.4881;0;-2.1E-6;0;Intelsat
0.99184716;0.0005052;7.4319;51.8726;12.7737;186.9707;0;-2.13E-6;0;Intelsat
0.99184856;0.0005052;7.4337;51.8669;13.4232;217.3592;0;-2.4E-6;0;Intelsat
0.99184941;0.0005052;7.4351;51.8622;13.8998;178.052;0;-2.59E-6;0;Intelsat
0.99184908;0.0005051;7.4368;51.8569;14.3737;184.5193;0;-2.79E-6;0;Intelsat
0.99184871;0.0005048;7.4384;51.8518;14.5961;182.8887;0;-2.94E-6;0;Intelsat
0.99184711;0.0005049;7.44;51.8467;14.7794;181.288;0;-3.06E-6;0;Intelsat
0.99184521;0.0005052;7.4415;51.8421;15.151;153.9255;0;-3.14E-6;0;Intelsat
0.99184213;0.0005064;7.4431;51.8368;15.5991;165.6517;0;-3.17E-6;0;Intelsat
0.99183885;0.0005075;7.4446;51.8319;16.0249;150.2306;0;-3.17E-6;0;Intelsat
0.99183836;0.0005083;7.4449;51.8311;16.0931;202.1529;0;-3.17E-6;0;Intelsat
0.99183468;0.0005097;7.4463;51.8263;16.4754;175.5327;0;-3.11E-6;0;Intelsat
0.99183089;0.0005111;7.4478;51.8215;16.7954;156.0052;0;-3.03E-6;0;Intelsat
0.99183058;0.0005114;7.4479;51.8212;16.7965;172.2344;0;-3.02E-6;0;Intelsat
0.99182569;0.0005135;7.4495;51.8162;17.1686;170.4312;0;-2.88E-6;0;Intelsat
0.99182083;0.0005159;7.4511;51.8111;17.7725;168.3998;0;-2.7E-6;0;Intelsat
0.99181572;0.0005183;7.4527;51.8061;18.3358;166.4419;0;-2.49E-6;0;Intelsat
0.9918108;0.0005203;7.4542;51.8014;18.7738;138.9786;0;-2.26E-6;0;Intelsat
0.99180484;0.0005233;7.4561;51.7956;19.51;187.9544;0;-1.95E-6;0;Intelsat
0.99179978;0.0005258;7.4577;51.7906;19.9084;186.185;0;-1.66E-6;0;Intelsat
0.99179503;0.0005281;7.4593;51.7856;20.3359;184.3237;0;-1.36E-6;0;Intelsat
0.99179006;0.000531;7.4611;51.78;21.1702;226.7473;0;-1.03E-6;0;Intelsat
0.99178332;0.0005347;7.4641;51.7705;22.2876;178.0389;0;-4.9E-7;0;Intelsat
0.99177874;0.0005367;7.4673;51.7597;23.6018;191.2655;0;2.0E-8;0;Intelsat
0.99177702;0.0005371;7.469;51.7537;24.4483;228.2024;0;2.4E-7;0;Intelsat
0.99177634;0.0005372;7.4703;51.7492;24.95;169.6405;0;3.8E-7;0;Intelsat
0.99177664;0.0005366;7.4719;51.7438;25.3944;167.757;0;5.2E-7;0;Intelsat
0.99177695;0.0005364;7.4725;51.7414;25.5991;323.6525;0;5.7E-7;0;Intelsat
0.99177774;0.0005353;7.4735;51.7378;25.9953;195.9703;0;6.4E-7;0;Intelsat
0.99177906;0.000534;7.4751;51.7326;26.5073;181.9599;0;7.0E-7;0;Intelsat
0.99178007;0.000534;7.4757;51.7305;26.5929;322.4648;0;7.2E-7;0;Intelsat
0.99178215;0.0005325;7.4767;51.7271;26.9955;189.6859;0;7.4E-7;0;Intelsat
0.99178701;0.0005297;7.4797;51.7169;27.8233;158.1203;0;7.1E-7;0;Intelsat
0.99179083;0.0005285;7.4812;51.7118;28.1462;156.368;0;6.5E-7;0;Intelsat
0.99179507;0.0005274;7.4828;51.7066;28.6105;154.4781;0;5.6E-7;0;Intelsat
0.99179507;0.0005274;7.4828;51.7066;28.6105;154.4781;0;5.6E-7;0;Intelsat
0.99179976;0.0005269;7.4844;51.701;28.8103;178.4665;0;4.2E-7;0;Intelsat
0.99180428;0.0005264;7.486;51.6958;29.0148;176.8177;0;2.7E-7;0;Intelsat
0.99180428;0.0005264;7.486;51.6958;29.0148;176.8177;0;2.7E-7;0;Intelsat
0.99180846;0.0005261;7.4874;51.691;29.3305;149.4733;0;1.0E-7;0;Intelsat
0.99181337;0.0005262;7.489;51.6855;29.7083;165.6605;0;-1.0E-7;0;Intelsat
0.99181778;0.0005265;7.4905;51.6805;30.0367;145.9293;0;-3.0E-7;0;Intelsat
0.99181809;0.0005267;7.4906;51.6801;30.0751;171.4953;0;-3.2E-7;0;Intelsat
0.99182211;0.0005272;7.4921;51.6753;30.3959;141.0213;0;-5.2E-7;0;Intelsat
0.99182636;0.0005281;7.4937;51.67;30.7044;142.4303;0;-7.4E-7;0;Intelsat
0.99182636;0.0005281;7.4937;51.67;30.7044;142.4303;0;-7.4E-7;0;Intelsat
0.99182978;0.0005291;7.4952;51.6647;31.0504;140.6546;0;-9.6E-7;0;Intelsat
0.99183325;0.0005304;7.4968;51.6595;31.4723;138.8043;0;-1.17E-6;0;Intelsat
0.99183356;0.0005304;7.4969;51.6591;31.5417;164.34;0;-1.19E-6;0;Intelsat
0.99183611;0.0005317;7.4984;51.6543;31.915;136.9418;0;-1.38E-6;0;Intelsat
0.99183634;0.0005317;7.4985;51.6539;31.9752;162.5031;0;-1.39E-6;0;Intelsat
0.99183857;0.0005329;7.5001;51.6487;32.441;160.605;0;-1.59E-6;0;Intelsat
0.99184134;0.0005355;7.5031;51.6385;33.3178;131.3187;0;-1.93E-6;0;Intelsat
0.99184145;0.0005355;7.5032;51.6381;33.3728;156.8377;0;-1.94E-6;0;Intelsat
0.99184194;0.0005367;7.5046;51.6331;33.8051;129.3929;0;-2.08E-6;0;Intelsat
0.9918423;0.0005374;7.5062;51.6278;34.3269;127.4569;0;-2.22E-6;0;Intelsat
0.9918423;0.0005373;7.5063;51.6274;34.3859;152.9778;0;-2.23E-6;0;Intelsat
0.99184181;0.0005376;7.5077;51.6223;34.9119;125.449;0;-2.34E-6;0;Intelsat
0.9918405;0.0005376;7.5092;51.6167;35.4572;123.5008;0;-2.44E-6;0;Intelsat
